IRIDIUM 119             
1 42959U 17061E   23294.62336204  .00000454  00000+0  15510-3 0  9997
2 42959  86.3950  70.4312 0001760  87.7587 272.3810 14.34217485315848
IRIDIUM 107             
1 42960U 17061F   23294.43308476  .00000573  00000+0  19766-3 0  9997
2 42960  86.3951  70.5261 0001817  93.5984 266.5419 14.34216878315827
IRIDIUM 132             
1 42961U 17061G   23294.43943025  .00000585  00000+0  20194-3 0  9993
2 42961  86.3949  70.5093 0001829  92.5520 267.5885 14.34218283315826
IRIDIUM 136             
1 42962U 17061H   23294.47113516  .00000287  00000+0  95270-4 0  9999
2 42962  86.3952  70.4983 0001931  74.5556 285.5853 14.34213042315846
IRIDIUM 139             
1 42963U 17061J   23294.61701930  .00000615  00000+0  21254-3 0  9994
2 42963  86.3952  70.4841 0001842  93.2252 266.9155 14.34220539315872
IRIDIUM 125             
1 42964U 17061K   23294.32526090  .00000261  00000+0  86266-4 0  9997
2 42964  86.3952  70.6492 0001771  89.1574 270.9825 14.34215862315848
IRIDIUM 135             
1 43070U 17083A   23294.43891396  .00000541  00000+0  18616-3 0  9990
2 43070  86.4023   7.3097 0002408 100.3093 259.8374 14.34223470305157
IRIDIUM 138             
1 43071U 17083B   23294.46429404  .00000549  00000+0  18914-3 0  9990
2 43071  86.4011   7.0466 0002000  89.6260 270.5165 14.34216978305147
